     2.10           N:  GPS NAV DATA                        RINEX VERSION / TYPE
Pinnacle 1.00                           06-NOV-08 23:50     PGM / RUN BY / DATE
build April 19, 2002                                        COMMENT
                                                            END OF HEADER       
 3 08 11  5  1 59 44.0  .306681264192D-03  .522959453519D-11  .000000000000D+00
     .140000000000D+02 -.975000000000D+01  .544844123516D-08  .507215758887D-01
    -.407919287682D-06  .114135260228D-01  .783801078796D-05  .515370662308D+04
     .266384000000D+06  .931322574615D-08  .208195323673D+01  .171363353729D-06
     .925819300090D+00  .211093750000D+03  .871476446046D+00 -.854607026384D-08
     .206080012631D-09  .000000000000D+00  .150400000000D+04  .000000000000D+00
     .200000000000D+01  .000000000000D+00 -.419095158577D-08  .140000000000D+02
     .266399000000D+06                                                          
 3 08 11  5  2  0  0.0  .306681729853D-03  .522959453519D-11  .000000000000D+00
     .620000000000D+02 -.975000000000D+01  .544879839290D-08  .530556426662D-01
    -.407919287682D-06  .114135225303D-01  .783801078796D-05  .515370663261D+04
     .266400000000D+06  .931322574615D-08  .208195309190D+01  .171363353729D-06
     .925819314719D+00  .211093750000D+03  .871476032040D+00 -.854642742158D-08
     .205365697163D-09  .000000000000D+00  .150400000000D+04  .000000000000D+00
     .200000000000D+01  .000000000000D+00 -.419095158577D-08  .620000000000D+02
     .266399000000D+06                                                          
 3 08 11  5  3 59 44.0  .306719448417D-03  .522959453519D-11  .000000000000D+00
     .150000000000D+02 -.978125000000D+01  .539236747089D-08  .110079293505D+01
    -.420957803726D-06  .114148323191D-01  .853464007378D-05  .515370985985D+04
     .273584000000D+06 -.109896063805D-06  .208189229741D+01  .987201929092D-07
     .925820439703D+00  .198937500000D+03  .871571314821D+00 -.850785438628D-08
     .126433837905D-09  .000000000000D+00  .150400000000D+04  .000000000000D+00
     .200000000000D+01  .000000000000D+00 -.419095158577D-08  .150000000000D+02
     .273599000000D+06                                                          
 3 08 11  5  6  0  0.0  .306757166982D-03  .522959453519D-11  .000000000000D+00
     .160000000000D+02 -.887500000000D+01  .532200739726D-08  .215331503602D+01
    -.592321157455D-06  .114150970476D-01  .865198671818D-05  .515370932961D+04
     .280800000000D+06 -.122934579849D-06  .208183074074D+01 -.175088644028D-06
     .925822613599D+00  .194843750000D+03  .871548171457D+00 -.827927343640D-08
     .240367155114D-09  .000000000000D+00  .150400000000D+04  .000000000000D+00
     .200000000000D+01  .000000000000D+00 -.419095158577D-08  .160000000000D+02
     .280799000000D+06                                                          
 6 08 11  5  2  0  0.0  .148992985487D-03 -.613908923697D-11  .000000000000D+00
     .270000000000D+02 -.928125000000D+01  .518521598506D-08  .262978422139D+01
    -.493600964546D-06  .561756594107D-02  .775232911110D-05  .515371194839D+04
     .266400000000D+06  .108033418655D-06  .214789626164D+01 -.558793544769D-07
     .933391896570D+00  .213937500000D+03 -.153815036481D+01 -.815319675623D-08
     .183936233111D-09  .000000000000D+00  .150400000000D+04  .000000000000D+00
     .200000000000D+01  .000000000000D+00 -.465661287308D-08  .270000000000D+02
     .266399000000D+06                                                          
 6 08 11  5  4  0  0.0  .148948747665D-03 -.613908923697D-11  .000000000000D+00
     .280000000000D+02 -.681250000000D+01  .513878547961D-08 -.260327366907D+01
    -.361353158951D-06  .561668316368D-02  .801123678684D-05  .515371359062D+04
     .273600000000D+06  .104308128357D-06  .214783710124D+01  .521540641785D-07
     .933393551131D+00  .207281250000D+03 -.153811611644D+01 -.815141096756D-08
     .269296931584D-09  .000000000000D+00  .150400000000D+04  .000000000000D+00
     .200000000000D+01  .000000000000D+00 -.465661287308D-08  .280000000000D+02
     .273599000000D+06                                                          
 6 08 11  5  5 59 44.0  .148899387568D-03 -.625277607469D-11  .000000000000D+00
     .700000000000D+01  .812500000000D+00  .520057376763D-08 -.155561454479D+01
     .203028321266D-06  .561732624192D-02  .835955142975D-05  .515371142197D+04
     .280784000000D+06  .130385160446D-07  .214777851868D+01  .199303030968D-06
     .933394762427D+00  .203843750000D+03 -.153794716842D+01 -.829927426951D-08
     .226795161215D-09  .000000000000D+00  .150400000000D+04  .000000000000D+00
     .200000000000D+01  .000000000000D+00 -.465661287308D-08  .700000000000D+01
     .280799000000D+06                                                          
 6 08 11  5  6  0  0.0  .148904044181D-03 -.613908923697D-11  .000000000000D+00
     .290000000000D+02  .812500000000D+00  .520128808310D-08 -.155328158983D+01
     .203028321266D-06  .561733474024D-02  .835955142975D-05  .515371142769D+04
     .280800000000D+06  .130385160446D-07  .214777837093D+01  .199303030968D-06
     .933394753649D+00  .203843750000D+03 -.153794645890D+01 -.829927426951D-08
     .226795161215D-09  .000000000000D+00  .150400000000D+04  .000000000000D+00
     .200000000000D+01  .000000000000D+00 -.465661287308D-08  .290000000000D+02
     .280799000000D+06                                                          
 7 08 11  5  2  0  0.0  .229398719966D-04  .341060513165D-12  .000000000000D+00
     .690000000000D+02 -.493437500000D+02  .438875423780D-08 -.133844250094D+01
    -.263750553131D-05  .231622101273D-02  .504404306412D-05  .515369109154D+04
     .266400000000D+06 -.260770320892D-07  .966599055873D-01 -.353902578354D-07
     .964896014421D+00  .284843750000D+03  .282136278700D+01 -.810462330438D-08
    -.214294640518D-11  .000000000000D+00  .150400000000D+04  .000000000000D+00
     .200000000000D+01  .000000000000D+00 -.107102096081D-07  .690000000000D+02
     .266399000000D+06                                                          
 7 08 11  5  3 59 44.0  .229422003031D-04  .341060513165D-12  .000000000000D+00
     .600000000000D+01 -.415937500000D+02  .448411535283D-08 -.291164813532D+00
    -.230036675930D-05  .231517874636D-02  .461749732494D-05  .515368795395D+04
     .273584000000D+06  .800937414169D-07  .966019857347D-01 -.316649675369D-07
     .964895603341D+00  .293906250000D+03  .282192198013D+01 -.815605401810D-08
    -.760745973838D-10  .000000000000D+00  .150400000000D+04  .000000000000D+00
     .200000000000D+01  .000000000000D+00 -.107102096081D-07  .600000000000D+01
     .273599000000D+06                                                          
 7 08 11  5  4  0  0.0  .229422003031D-04  .341060513165D-12  .000000000000D+00
     .720000000000D+02 -.415937500000D+02  .448411535283D-08 -.288830707255D+00
    -.230036675930D-05  .231517828070D-02  .461563467979D-05  .515368795395D+04
     .273600000000D+06  .800937414169D-07  .966018438317D-01 -.316649675369D-07
     .964895623821D+00  .293906250000D+03  .282192151492D+01 -.815605401810D-08
    -.753602819154D-10  .000000000000D+00  .150400000000D+04  .000000000000D+00
     .200000000000D+01  .000000000000D+00 -.107102096081D-07  .720000000000D+02
     .273599000000D+06                                                          
 7 08 11  5  5 59 44.0  .229445286095D-04  .341060513165D-12  .000000000000D+00
     .700000000000D+01 -.421562500000D+02  .456126142342D-08  .758880546649D+00
    -.233761966228D-05  .231619342230D-02  .404193997383D-05  .515368994713D+04
     .280784000000D+06 -.186264514923D-07  .965429350465D-01  .149011611938D-07
     .964894512004D+00  .301468750000D+03  .282204823581D+01 -.826427281156D-08
    -.885751180806D-10  .000000000000D+00  .150400000000D+04  .000000000000D+00
     .200000000000D+01  .000000000000D+00 -.107102096081D-07  .700000000000D+01
     .280799000000D+06                                                          
 8 08 11  5  4  0  0.0 -.176811125129D-03 -.147792889038D-11  .000000000000D+00
     .174000000000D+03 -.514062500000D+02  .396837958465D-08 -.100699446212D+01
    -.284984707832D-05  .106308599934D-01  .495836138725D-05  .515371100807D+04
     .273600000000D+06 -.558793544769D-08  .152719235061D+00 -.193715095520D-06
     .986069608980D+00  .295937500000D+03  .293609100507D+01 -.791782980939D-08
     .667884962947D-10  .000000000000D+00  .150400000000D+04  .000000000000D+00
     .200000000000D+01  .000000000000D+00 -.372529029846D-08  .174000000000D+03
     .273599000000D+06                                                          
 8 08 11  5  6  0  0.0 -.176821835339D-03 -.147792889038D-11  .000000000000D+00
     .175000000000D+03 -.445312500000D+02  .409374194936D-08  .430908883942D-01
    -.251084566116D-05  .106302747736D-01  .469572842121D-05  .515370933533D+04
     .280800000000D+06  .160187482834D-06  .152662438729D+00 -.111758708954D-07
     .986068917020D+00  .300531250000D+03  .293616076140D+01 -.809176562595D-08
    -.696457581682D-10  .000000000000D+00  .150400000000D+04  .000000000000D+00
     .400000000000D+01  .000000000000D+00 -.372529029846D-08  .175000000000D+03
     .280799000000D+06                                                          
11 08 11  5  4  0  0.0  .163391232491D-04 -.795807864051D-12  .000000000000D+00
     .560000000000D+02  .150937500000D+02  .640562396281D-08 -.516625653201D+00
     .851228833199D-06  .881636387203D-02  .632181763649D-05  .515364911652D+04
     .273600000000D+06  .856816768646D-07  .303738715553D+01  .124797224998D-06
     .890697606730D+00  .219156250000D+03  .640030394509D+00 -.901144679150D-08
    -.667884962947D-10  .000000000000D+00  .150400000000D+04  .000000000000D+00
     .200000000000D+01  .000000000000D+00 -.121071934700D-07  .560000000000D+02
     .273599000000D+06                                                          
